[{"OBJECT_NAME":"ONEWEB-0349","OBJECT_ID":"2021-090C","EPOCH":"2026-05-26T02:34:04.070784","MEAN_MOTION":13.2076955,"ECCENTRICITY":0.0001872,"INCLINATION":87.9177,"RA_OF_ASC_NODE":278.8432,"ARG_OF_PERICENTER":100.6171,"MEAN_ANOMALY":259.5173,"EPHEMERIS_TYPE":0,"CLASSIFICATION_TYPE":"U","NORAD_CAT_ID":49281,"ELEMENT_SET_NO":999,"REV_AT_EPOCH":22691,"BSTAR":0.0001418,"MEAN_MOTION_DOT":7.1e-07,"MEAN_MOTION_DDOT":0.0},{"OBJECT_NAME":"ONEWEB-0353","OBJECT_ID":"2021-090D","EPOCH":"2026-05-26T03:16:37.465536","MEAN_MOTION":13.14501751,"ECCENTRICITY":0.0001735,"INCLINATION":87.8945,"RA_OF_ASC_NODE":294.1017,"ARG_OF_PERICENTER":89.7616,"MEAN_ANOMALY":270.3712,"EPHEMERIS_TYPE":0,"CLASSIFICATION_TYPE":"U","NORAD_CAT_ID":49282,"ELEMENT_SET_NO":999,"REV_AT_EPOCH":22468,"BSTAR":-0.00058515,"MEAN_MOTION_DOT":-2.04e-06,"MEAN_MOTION_DDOT":0.0},{"OBJECT_NAME":"ONEWEB-0356","OBJECT_ID":"2021-090E","EPOCH":"2026-05-26T02:31:40.474848","MEAN_MOTION":13.20770746,"ECCENTRICITY":0.0002631,"INCLINATION":87.9177,"RA_OF_ASC_NODE":278.8368,"ARG_OF_PERICENTER":89.477,"MEAN_ANOMALY":270.6665,"EPHEMERIS_TYPE":0,"CLASSIFICATION_TYPE":"U","NORAD_CAT_ID":49283,"ELEMENT_SET_NO":999,"REV_AT_EPOCH":22691,"BSTAR":0.00035345,"MEAN_MOTION_DOT":1.57e-06,"MEAN_MOTION_DDOT":0.0},{"OBJECT_NAME":"ONEWEB-0358","OBJECT_ID":"2021-090F","EPOCH":"2026-05-26T06:52:13.095552","MEAN_MOTION":13.20769436,"ECCENTRICITY":0.0002062,"INCLINATION":87.9178,"RA_OF_ASC_NODE":278.8044,"ARG_OF_PERICENTER":101.4853,"MEAN_ANOMALY":258.6512,"EPHEMERIS_TYPE":0,"CLASSIFICATION_TYPE":"U","NORAD_CAT_ID":49284,"ELEMENT_SET_NO":999,"REV_AT_EPOCH":22766,"BSTAR":6.0178e-05,"MEAN_MOTION_DOT":3.7e-07,"MEAN_MOTION_DDOT":0.0},{"OBJECT_NAME":"ONEWEB-0359","OBJECT_ID":"2021-090G","EPOCH":"2026-05-26T06:48:37.805760","MEAN_MOTION":13.20771523,"ECCENTRICITY":0.0002093,"INCLINATION":87.9176,"RA_OF_ASC_NODE":278.8013,"ARG_OF_PERICENTER":105.6085,"MEAN_ANOMALY":254.5279,"EPHEMERIS_TYPE":0,"CLASSIFICATION_TYPE":"U","NORAD_CAT_ID":49285,"ELEMENT_SET_NO":999,"REV_AT_EPOCH":22764,"BSTAR":-0.00012565999999999999,"MEAN_MOTION_DOT":-3.8e-07,"MEAN_MOTION_DDOT":0.0},{"OBJECT_NAME":"ONEWEB-0360","OBJECT_ID":"2021-090H","EPOCH":"2026-05-26T06:34:04.340640","MEAN_MOTION":13.2077327,"ECCENTRICITY":0.0001975,"INCLINATION":87.9176,"RA_OF_ASC_NODE":278.8094,"ARG_OF_PERICENTER":104.2788,"MEAN_ANOMALY":255.8565,"EPHEMERIS_TYPE":0,"CLASSIFICATION_TYPE":"U","NORAD_CAT_ID":49286,"ELEMENT_SET_NO":999,"REV_AT_EPOCH":22695,"BSTAR":-2.3154000000000002e-05,"MEAN_MOTION_DOT":4e-08,"MEAN_MOTION_DDOT":0.0},{"OBJECT_NAME":"ONEWEB-0361","OBJECT_ID":"2021-090J","EPOCH":"2026-05-26T02:29:11.722560","MEAN_MOTION":13.20773811,"ECCENTRICITY":0.0002,"INCLINATION":87.9177,"RA_OF_ASC_NODE":278.8415,"ARG_OF_PERICENTER":101.5198,"MEAN_ANOMALY":258.616,"EPHEMERIS_TYPE":0,"CLASSIFICATION_TYPE":"U","NORAD_CAT_ID":49287,"ELEMENT_SET_NO":999,"REV_AT_EPOCH":22738,"BSTAR":0.00033015000000000003,"MEAN_MOTION_DOT":1.47e-06,"MEAN_MOTION_DDOT":0.0},{"OBJECT_NAME":"ONEWEB-0362","OBJECT_ID":"2021-090K","EPOCH":"2026-05-26T04:34:06.654720","MEAN_MOTION":13.19726518,"ECCENTRICITY":0.0001566,"INCLINATION":87.9152,"RA_OF_ASC_NODE":309.3633,"ARG_OF_PERICENTER":99.2439,"MEAN_ANOMALY":260.8871,"EPHEMERIS_TYPE":0,"CLASSIFICATION_TYPE":"U","NORAD_CAT_ID":49288,"ELEMENT_SET_NO":999,"REV_AT_EPOCH":22401,"BSTAR":0.00017169,"MEAN_MOTION_DOT":8.2e-07,"MEAN_MOTION_DDOT":0.0},{"OBJECT_NAME":"ONEWEB-0363","OBJECT_ID":"2021-090L","EPOCH":"2026-05-26T06:29:15.199584","MEAN_MOTION":13.20753864,"ECCENTRICITY":0.0002327,"INCLINATION":87.9178,"RA_OF_ASC_NODE":278.8086,"ARG_OF_PERICENTER":95.0463,"MEAN_ANOMALY":265.0936,"EPHEMERIS_TYPE":0,"CLASSIFICATION_TYPE":"U","NORAD_CAT_ID":49289,"ELEMENT_SET_NO":999,"REV_AT_EPOCH":22741,"BSTAR":0.0031059,"MEAN_MOTION_DOT":1.276e-05,"MEAN_MOTION_DDOT":0.0},{"OBJECT_NAME":"ONEWEB-0364","OBJECT_ID":"2021-090M","EPOCH":"2026-05-26T07:24:57.388320","MEAN_MOTION":13.20770131,"ECCENTRICITY":0.0001883,"INCLINATION":87.9172,"RA_OF_ASC_NODE":278.8096,"ARG_OF_PERICENTER":100.1046,"MEAN_ANOMALY":260.03,"EPHEMERIS_TYPE":0,"CLASSIFICATION_TYPE":"U","NORAD_CAT_ID":49290,"ELEMENT_SET_NO":999,"REV_AT_EPOCH":22855,"BSTAR":0.00025167,"MEAN_MOTION_DOT":1.15e-06,"MEAN_MOTION_DDOT":0.0},{"OBJECT_NAME":"ONEWEB-0365","OBJECT_ID":"2021-090N","EPOCH":"2026-05-26T04:47:46.144896","MEAN_MOTION":13.19726538,"ECCENTRICITY":0.0001709,"INCLINATION":87.9162,"RA_OF_ASC_NODE":309.3481,"ARG_OF_PERICENTER":92.9171,"MEAN_ANOMALY":267.2157,"EPHEMERIS_TYPE":0,"CLASSIFICATION_TYPE":"U","NORAD_CAT_ID":49291,"ELEMENT_SET_NO":999,"REV_AT_EPOCH":22352,"BSTAR":2.6419e-05,"MEAN_MOTION_DOT":2.4e-07,"MEAN_MOTION_DDOT":0.0},{"OBJECT_NAME":"ONEWEB-0366","OBJECT_ID":"2021-090P","EPOCH":"2026-05-26T03:12:02.675520","MEAN_MOTION":13.14501447,"ECCENTRICITY":0.0001866,"INCLINATION":87.8939,"RA_OF_ASC_NODE":294.1052,"ARG_OF_PERICENTER":99.0022,"MEAN_ANOMALY":261.1319,"EPHEMERIS_TYPE":0,"CLASSIFICATION_TYPE":"U","NORAD_CAT_ID":49292,"ELEMENT_SET_NO":999,"REV_AT_EPOCH":22466,"BSTAR":-0.00053035,"MEAN_MOTION_DOT":-1.84e-06,"MEAN_MOTION_DDOT":0.0},{"OBJECT_NAME":"ONEWEB-0367","OBJECT_ID":"2021-090Q","EPOCH":"2026-05-26T02:49:50.826432","MEAN_MOTION":13.20771926,"ECCENTRICITY":0.0001714,"INCLINATION":87.9178,"RA_OF_ASC_NODE":278.84,"ARG_OF_PERICENTER":102.312,"MEAN_ANOMALY":257.8205,"EPHEMERIS_TYPE":0,"CLASSIFICATION_TYPE":"U","NORAD_CAT_ID":49293,"ELEMENT_SET_NO":999,"REV_AT_EPOCH":22691,"BSTAR":5.9782000000000005e-05,"MEAN_MOTION_DOT":3.7e-07,"MEAN_MOTION_DDOT":0.0},{"OBJECT_NAME":"ONEWEB-0368","OBJECT_ID":"2021-090R","EPOCH":"2026-05-26T07:39:32.546016","MEAN_MOTION":13.20771924,"ECCENTRICITY":0.0002067,"INCLINATION":87.9166,"RA_OF_ASC_NODE":278.8128,"ARG_OF_PERICENTER":79.2406,"MEAN_ANOMALY":280.896,"EPHEMERIS_TYPE":0,"CLASSIFICATION_TYPE":"U","NORAD_CAT_ID":49294,"ELEMENT_SET_NO":999,"REV_AT_EPOCH":22809,"BSTAR":0.00025255,"MEAN_MOTION_DOT":1.16e-06,"MEAN_MOTION_DDOT":0.0},{"OBJECT_NAME":"ONEWEB-0369","OBJECT_ID":"2021-090S","EPOCH":"2026-05-26T04:40:56.776512","MEAN_MOTION":13.19725826,"ECCENTRICITY":0.0001792,"INCLINATION":87.915,"RA_OF_ASC_NODE":309.3587,"ARG_OF_PERICENTER":91.4696,"MEAN_ANOMALY":268.6642,"EPHEMERIS_TYPE":0,"CLASSIFICATION_TYPE":"U","NORAD_CAT_ID":49295,"ELEMENT_SET_NO":999,"REV_AT_EPOCH":22351,"BSTAR":4.6177e-05,"MEAN_MOTION_DOT":3.1e-07,"MEAN_MOTION_DDOT":0.0},{"OBJECT_NAME":"ONEWEB-0370","OBJECT_ID":"2021-090T","EPOCH":"2026-05-26T06:41:20.596704","MEAN_MOTION":13.20773394,"ECCENTRICITY":0.0001817,"INCLINATION":87.9177,"RA_OF_ASC_NODE":278.8079,"ARG_OF_PERICENTER":107.8282,"MEAN_ANOMALY":252.305,"EPHEMERIS_TYPE":0,"CLASSIFICATION_TYPE":"U","NORAD_CAT_ID":49296,"ELEMENT_SET_NO":999,"REV_AT_EPOCH":22697,"BSTAR":2.4998000000000004e-05,"MEAN_MOTION_DOT":2.3e-07,"MEAN_MOTION_DDOT":0.0}]