ONEWEB-0349             
1 49281U 21090C   26146.10699156  .00000071  00000+0  14180-3 0  9996
2 49281  87.9177 278.8432 0001872 100.6171 259.5173 13.20769550226913
ONEWEB-0353             
1 49282U 21090D   26146.13654474 -.00000204  00000+0 -58515-3 0  9994
2 49282  87.8945 294.1017 0001735  89.7616 270.3712 13.14501751224687
ONEWEB-0356             
1 49283U 21090E   26146.10532957  .00000157  00000+0  35345-3 0  9994
2 49283  87.9177 278.8368 0002631  89.4770 270.6665 13.20770746226915
ONEWEB-0358             
1 49284U 21090F   26146.28626268  .00000037  00000+0  60178-4 0  9993
2 49284  87.9178 278.8044 0002062 101.4853 258.6512 13.20769436227667
ONEWEB-0359             
1 49285U 21090G   26146.28377090 -.00000038  00000+0 -12566-3 0  9990
2 49285  87.9176 278.8013 0002093 105.6085 254.5279 13.20771523227642
ONEWEB-0360             
1 49286U 21090H   26146.27366135  .00000004  00000+0 -23154-4 0  9996
2 49286  87.9176 278.8094 0001975 104.2788 255.8565 13.20773270226951
ONEWEB-0361             
1 49287U 21090J   26146.10360790  .00000147  00000+0  33015-3 0  9993
2 49287  87.9177 278.8415 0002000 101.5198 258.6160 13.20773811227386
ONEWEB-0362             
1 49288U 21090K   26146.19035480  .00000082  00000+0  17169-3 0  9998
2 49288  87.9152 309.3633 0001566  99.2439 260.8871 13.19726518224010
ONEWEB-0363             
1 49289U 21090L   26146.27031481  .00001276  00000+0  31059-2 0  9994
2 49289  87.9178 278.8086 0002327  95.0463 265.0936 13.20753864227410
ONEWEB-0364             
1 49290U 21090M   26146.30899755  .00000115  00000+0  25167-3 0  9991
2 49290  87.9172 278.8096 0001883 100.1046 260.0300 13.20770131228550
ONEWEB-0365             
1 49291U 21090N   26146.19983964  .00000024  00000+0  26419-4 0  9996
2 49291  87.9162 309.3481 0001709  92.9171 267.2157 13.19726538223523
ONEWEB-0366             
1 49292U 21090P   26146.13336430 -.00000184  00000+0 -53035-3 0  9993
2 49292  87.8939 294.1052 0001866  99.0022 261.1319 13.14501447224661
ONEWEB-0367             
1 49293U 21090Q   26146.11794938  .00000037  00000+0  59782-4 0  9994
2 49293  87.9178 278.8400 0001714 102.3120 257.8205 13.20771926226917
ONEWEB-0368             
1 49294U 21090R   26146.31912669  .00000116  00000+0  25255-3 0  9995
2 49294  87.9166 278.8128 0002067  79.2406 280.8960 13.20771924228096
ONEWEB-0369             
1 49295U 21090S   26146.19510158  .00000031  00000+0  46177-4 0  9992
2 49295  87.9150 309.3587 0001792  91.4696 268.6642 13.19725826223511
ONEWEB-0370             
1 49296U 21090T   26146.27871061  .00000023  00000+0  24998-4 0  9993
2 49296  87.9177 278.8079 0001817 107.8282 252.3050 13.20773394226979
